start=new Date('2022-07-28T00:00:00.000Z').valueOf();
sats=[{"RCS_SIZE":"LARGE","MEAN_MOTION":"15.06395313","ARG_OF_PERICENTER":"54.4983","TLE_LINE1":"1 47363U 21005Q   22208.80299329 -.00000954  00000-0 -45164-4 0  9991","PERIOD":"95.592","SITE":"AFETR","MEAN_MOTION_DOT":"-0.00000954","OBJECT_ID":"2021-005Q","EPOCH":"2022-07-27T19:16:18.620256","MEAN_ELEMENT_THEORY":"SGP4","BSTAR":"-0.00004516400000","REV_AT_EPOCH":"8395","DECAY_DATE":null,"SEMIMAJOR_AXIS":"6925.363","RA_OF_ASC_NODE":"231.2974","REF_FRAME":"TEME","ELEMENT_SET_NO":"999","GP_ID":"208998351","NORAD_CAT_ID":"47363","PERIAPSIS":"545.978","CLASSIFICATION_TYPE":"U","COUNTRY_CODE":"US","OBJECT_TYPE":"PAYLOAD","OBJECT_NAME":"STARLINK-2077","INCLINATION":"53.0536","APOAPSIS":"548.478","FILE":"3523323","MEAN_MOTION_DDOT":"0.0000000000000","TIME_SYSTEM":"UTC","TLE_LINE2":"2 47363  53.0536 231.2974 0001805  54.4983 305.6174 15.06395313 83959","ECCENTRICITY":"0.00018050","EPHEMERIS_TYPE":"0","MEAN_ANOMALY":"305.6174","LAUNCH_DATE":"2021-01-20","CENTER_NAME":"EARTH"},{"RA_OF_ASC_NODE":"231.4981","SEMIMAJOR_AXIS":"6925.375","REF_FRAME":"TEME","ELEMENT_SET_NO":"999","NORAD_CAT_ID":"47366","GP_ID":"208998610","SITE":"AFETR","EPOCH":"2022-07-27T18:17:55.884768","MEAN_MOTION_DOT":"-0.00000812","OBJECT_ID":"2021-005T","REV_AT_EPOCH":"8394","BSTAR":"-0.00003560800000","MEAN_ELEMENT_THEORY":"SGP4","DECAY_DATE":null,"TLE_LINE1":"1 47366U 21005T   22208.76245237 -.00000812  00000-0 -35608-4 0  9993","PERIOD":"95.593","RCS_SIZE":"LARGE","ARG_OF_PERICENTER":"73.9080","MEAN_MOTION":"15.06391386","LAUNCH_DATE":"2021-01-20","CENTER_NAME":"EARTH","TIME_SYSTEM":"UTC","MEAN_MOTION_DDOT":"0.0000000000000","ECCENTRICITY":"0.00014850","TLE_LINE2":"2 47366  53.0540 231.4981 0001485  73.9080 286.2072 15.06391386 83941","EPHEMERIS_TYPE":"0","MEAN_ANOMALY":"286.2072","INCLINATION":"53.0540","APOAPSIS":"548.268","FILE":"3523323","COUNTRY_CODE":"US","OBJECT_TYPE":"PAYLOAD","CLASSIFICATION_TYPE":"U","PERIAPSIS":"546.212","OBJECT_NAME":"STARLINK-2081"},{"LAUNCH_DATE":"2021-01-20","CENTER_NAME":"EARTH","EPHEMERIS_TYPE":"0","MEAN_ANOMALY":"302.8838","TIME_SYSTEM":"UTC","MEAN_MOTION_DDOT":"0.0000000000000","ECCENTRICITY":"0.00017250","TLE_LINE2":"2 47367  53.0529 231.3749 0001725  57.2317 302.8838 15.06391630 83953","FILE":"3523323","INCLINATION":"53.0529","APOAPSIS":"548.434","OBJECT_NAME":"STARLINK-2082","COUNTRY_CODE":"US","OBJECT_TYPE":"PAYLOAD","CLASSIFICATION_TYPE":"U","PERIAPSIS":"546.045","GP_ID":"208999351","NORAD_CAT_ID":"47367","RA_OF_ASC_NODE":"231.3749","SEMIMAJOR_AXIS":"6925.374","ELEMENT_SET_NO":"999","REF_FRAME":"TEME","REV_AT_EPOCH":"8395","MEAN_ELEMENT_THEORY":"SGP4","BSTAR":"-0.00003854500000","DECAY_DATE":null,"SITE":"AFETR","MEAN_MOTION_DOT":"-0.00000856","EPOCH":"2022-07-27T18:55:04.960704","OBJECT_ID":"2021-005U","PERIOD":"95.593","TLE_LINE1":"1 47367U 21005U   22208.78825186 -.00000856  00000-0 -38545-4 0  9994","RCS_SIZE":"LARGE","ARG_OF_PERICENTER":"57.2317","MEAN_MOTION":"15.06391630"},{"MEAN_ELEMENT_THEORY":"SGP4","BSTAR":"-0.00002722900000","REV_AT_EPOCH":"8489","DECAY_DATE":null,"SITE":"AFETR","MEAN_MOTION_DOT":"-0.00000687","EPOCH":"2022-07-27T18:44:28.128768","OBJECT_ID":"2021-005V","GP_ID":"208974055","NORAD_CAT_ID":"47368","SEMIMAJOR_AXIS":"6925.374","RA_OF_ASC_NODE":"231.4027","ELEMENT_SET_NO":"999","REF_FRAME":"TEME","RCS_SIZE":"LARGE","ARG_OF_PERICENTER":"77.8506","MEAN_MOTION":"15.06391636","PERIOD":"95.593","TLE_LINE1":"1 47368U 21005V   22208.78088112 -.00000687  00000-0 -27229-4 0  9994","EPHEMERIS_TYPE":"0","MEAN_ANOMALY":"282.2655","MEAN_MOTION_DDOT":"0.0000000000000","TIME_SYSTEM":"UTC","ECCENTRICITY":"0.00015340","TLE_LINE2":"2 47368  53.0539 231.4027 0001534  77.8506 282.2655 15.06391636 84899","LAUNCH_DATE":"2021-01-20","CENTER_NAME":"EARTH","OBJECT_NAME":"STARLINK-2084","PERIAPSIS":"546.177","COUNTRY_CODE":"US","CLASSIFICATION_TYPE":"U","OBJECT_TYPE":"PAYLOAD","FILE":"3523186","INCLINATION":"53.0539","APOAPSIS":"548.302"},{"RCS_SIZE":"LARGE","ARG_OF_PERICENTER":"55.0924","MEAN_MOTION":"15.06400303","PERIOD":"95.592","TLE_LINE1":"1 47369U 21005W   22208.71910524  .00000654  00000-0  62834-4 0  9992","MEAN_ELEMENT_THEORY":"SGP4","BSTAR":"0.00006283400000","REV_AT_EPOCH":"8422","DECAY_DATE":null,"SITE":"AFETR","MEAN_MOTION_DOT":"0.00000654","OBJECT_ID":"2021-005W","EPOCH":"2022-07-27T17:15:30.692736","NORAD_CAT_ID":"47369","GP_ID":"208997859","SEMIMAJOR_AXIS":"6925.348","RA_OF_ASC_NODE":"211.6740","ELEMENT_SET_NO":"999","REF_FRAME":"TEME","OBJECT_NAME":"STARLINK-2085","PERIAPSIS":"546.076","COUNTRY_CODE":"US","CLASSIFICATION_TYPE":"U","OBJECT_TYPE":"PAYLOAD","FILE":"3523323","INCLINATION":"53.0529","APOAPSIS":"548.349","EPHEMERIS_TYPE":"0","MEAN_ANOMALY":"305.0219","MEAN_MOTION_DDOT":"0.0000000000000","TIME_SYSTEM":"UTC","ECCENTRICITY":"0.00016410","TLE_LINE2":"2 47369  53.0529 211.6740 0001641  55.0924 305.0219 15.06400303 84221","LAUNCH_DATE":"2021-01-20","CENTER_NAME":"EARTH"},{"LAUNCH_DATE":"2021-01-20","CENTER_NAME":"EARTH","EPHEMERIS_TYPE":"0","MEAN_ANOMALY":"305.7700","TIME_SYSTEM":"UTC","MEAN_MOTION_DDOT":"0.0000000000000","TLE_LINE2":"2 47370  53.0545 191.8817 0001904  54.3466 305.7700 15.06399509 84508","ECCENTRICITY":"0.00019040","FILE":"3523323","INCLINATION":"53.0545","APOAPSIS":"548.534","OBJECT_NAME":"STARLINK-2086","COUNTRY_CODE":"US","CLASSIFICATION_TYPE":"U","OBJECT_TYPE":"PAYLOAD","PERIAPSIS":"545.896","GP_ID":"208999103","NORAD_CAT_ID":"47370","RA_OF_ASC_NODE":"191.8817","SEMIMAJOR_AXIS":"6925.350","ELEMENT_SET_NO":"999","REF_FRAME":"TEME","REV_AT_EPOCH":"8450","MEAN_ELEMENT_THEORY":"SGP4","BSTAR":"0.00008923400000","DECAY_DATE":null,"SITE":"AFETR","MEAN_MOTION_DOT":"0.00001048","OBJECT_ID":"2021-005X","EPOCH":"2022-07-27T16:15:50.422752","PERIOD":"95.592","TLE_LINE1":"1 47370U 21005X   22208.67766693  .00001048  00000-0  89234-4 0  9996","RCS_SIZE":"LARGE","ARG_OF_PERICENTER":"54.3466","MEAN_MOTION":"15.06399509"},{"OBJECT_NAME":"STARLINK-2088","CLASSIFICATION_TYPE":"U","COUNTRY_CODE":"US","OBJECT_TYPE":"PAYLOAD","PERIAPSIS":"546.304","FILE":"3523187","APOAPSIS":"548.132","INCLINATION":"53.0546","MEAN_ANOMALY":"294.1219","EPHEMERIS_TYPE":"0","ECCENTRICITY":"0.00013200","TLE_LINE2":"2 47371  53.0546 231.3521 0001320  65.9908 294.1219 15.06398453 83954","TIME_SYSTEM":"UTC","MEAN_MOTION_DDOT":"0.0000000000000","CENTER_NAME":"EARTH","LAUNCH_DATE":"2021-01-20","ARG_OF_PERICENTER":"65.9908","RCS_SIZE":"LARGE","MEAN_MOTION":"15.06398453","PERIOD":"95.592","TLE_LINE1":"1 47371U 21005Y   22208.79562592  .00000898  00000-0  79145-4 0  9994","DECAY_DATE":null,"REV_AT_EPOCH":"8395","BSTAR":"0.00007914500000","MEAN_ELEMENT_THEORY":"SGP4","EPOCH":"2022-07-27T19:05:42.079488","MEAN_MOTION_DOT":"0.00000898","OBJECT_ID":"2021-005Y","SITE":"AFETR","GP_ID":"208974075","NORAD_CAT_ID":"47371","REF_FRAME":"TEME","ELEMENT_SET_NO":"999","RA_OF_ASC_NODE":"231.3521","SEMIMAJOR_AXIS":"6925.353"},{"LAUNCH_DATE":"2021-01-20","CENTER_NAME":"EARTH","EPHEMERIS_TYPE":"0","MEAN_ANOMALY":"303.2197","MEAN_MOTION_DDOT":"0.0000000000000","TIME_SYSTEM":"UTC","ECCENTRICITY":"0.00016110","TLE_LINE2":"2 47372  53.0548 226.6861 0001611  56.8946 303.2197 15.06392770 84016","FILE":"3523323","INCLINATION":"53.0548","APOAPSIS":"548.351","OBJECT_NAME":"STARLINK-2089","PERIAPSIS":"546.120","OBJECT_TYPE":"PAYLOAD","COUNTRY_CODE":"US","CLASSIFICATION_TYPE":"U","NORAD_CAT_ID":"47372","GP_ID":"208997609","SEMIMAJOR_AXIS":"6925.371","RA_OF_ASC_NODE":"226.6861","ELEMENT_SET_NO":"999","REF_FRAME":"TEME","MEAN_ELEMENT_THEORY":"SGP4","BSTAR":"-0.00003909100000","REV_AT_EPOCH":"8401","DECAY_DATE":null,"SITE":"AFETR","EPOCH":"2022-07-27T18:58:27.676704","MEAN_MOTION_DOT":"-0.00000864","OBJECT_ID":"2021-005Z","PERIOD":"95.593","TLE_LINE1":"1 47372U 21005Z   22208.79059811 -.00000864  00000-0 -39091-4 0  9991","ARG_OF_PERICENTER":"56.8946","RCS_SIZE":"LARGE","MEAN_MOTION":"15.06392770"},{"RCS_SIZE":"LARGE","MEAN_MOTION":"15.06406733","ARG_OF_PERICENTER":"66.1749","TLE_LINE1":"1 47373U 21005AA  22208.79193108  .00001638  00000-0  12880-3 0  9994","PERIOD":"95.592","EPOCH":"2022-07-27T19:00:22.845312","MEAN_MOTION_DOT":"0.00001638","OBJECT_ID":"2021-005AA","SITE":"AFETR","DECAY_DATE":null,"REV_AT_EPOCH":"8395","BSTAR":"0.00012880000000","MEAN_ELEMENT_THEORY":"SGP4","ELEMENT_SET_NO":"999","REF_FRAME":"TEME","RA_OF_ASC_NODE":"231.3525","SEMIMAJOR_AXIS":"6925.328","GP_ID":"208998352","NORAD_CAT_ID":"47373","OBJECT_TYPE":"PAYLOAD","COUNTRY_CODE":"US","CLASSIFICATION_TYPE":"U","PERIAPSIS":"546.176","OBJECT_NAME":"STARLINK-2092","APOAPSIS":"548.210","INCLINATION":"53.0542","FILE":"3523323","TLE_LINE2":"2 47373  53.0542 231.3525 0001468  66.1749 293.9394 15.06406733 83957","ECCENTRICITY":"0.00014680","TIME_SYSTEM":"UTC","MEAN_MOTION_DDOT":"0.0000000000000","MEAN_ANOMALY":"293.9394","EPHEMERIS_TYPE":"0","CENTER_NAME":"EARTH","LAUNCH_DATE":"2021-01-20"},{"PERIAPSIS":"546.155","CLASSIFICATION_TYPE":"U","COUNTRY_CODE":"US","OBJECT_TYPE":"PAYLOAD","OBJECT_NAME":"STARLINK-2093","INCLINATION":"53.0542","APOAPSIS":"548.263","FILE":"3523323","MEAN_MOTION_DDOT":"0.0000000000000","TIME_SYSTEM":"UTC","ECCENTRICITY":"0.00015220","TLE_LINE2":"2 47374  53.0542 232.4423 0001522  58.8822 301.2317 15.06401577 83913","EPHEMERIS_TYPE":"0","MEAN_ANOMALY":"301.2317","LAUNCH_DATE":"2021-01-20","CENTER_NAME":"EARTH","ARG_OF_PERICENTER":"58.8822","RCS_SIZE":"LARGE","MEAN_MOTION":"15.06401577","TLE_LINE1":"1 47374U 21005AB  22208.54772233 -.00000251  00000-0  20462-5 0  9998","PERIOD":"95.592","SITE":"AFETR","EPOCH":"2022-07-27T13:08:43.209312","MEAN_MOTION_DOT":"-0.00000251","OBJECT_ID":"2021-005AB","BSTAR":"0.00000204620000","MEAN_ELEMENT_THEORY":"SGP4","REV_AT_EPOCH":"8391","DECAY_DATE":null,"SEMIMAJOR_AXIS":"6925.344","RA_OF_ASC_NODE":"232.4423","REF_FRAME":"TEME","ELEMENT_SET_NO":"999","GP_ID":"208998611","NORAD_CAT_ID":"47374"}];
